NOAA 9                  
1 15427U 84123A   24349.25973351  .00000305  00000+0  17526-3 0  9995
2 15427  99.1242 351.2019 0015626 105.9214 264.7097 14.16795913 65788
